NORAD_CAT_ID,OBJECT_NAME,OBJECT_TYPE,EPOCH,MEAN_MOTION,ECCENTRICITY,INCLINATION,RA_OF_ASC_NODE,ARG_OF_PERICENTER,MEAN_ANOMALY,BSTAR,MEAN_MOTION_DOT,MEAN_MOTION_DDOT,TLE_LINE0,TLE_LINE1,TLE_LINE2,SEMIMAJOR_AXIS,PERIOD,APOGEE,PERIGEE,DECAYED
53007.0,STARLINK-4215,PAYLOAD,2023-10-22 23:31:37,15.08826605,0.0001571,53.219,33.9105,84.4143,275.7028,-1.5923e-05,-5.41e-06,0.0,0 STARLINK-4215,1 53007U 22076X   23295.98029432 -.00000541  00000-0 -15923-4 0  9996,2 53007  53.2190  33.9105 0001571  84.4143 275.7028 15.08826605 72175,6917.921,95.438,540.873,538.7,0.0
53007.0,STARLINK-4215,PAYLOAD,2023-10-23 12:14:42,15.08840602,0.0001627,53.2197,31.5318,92.7255,267.3923,1.5434e-05,-4.2e-07,0.0,0 STARLINK-4215,1 53007U 22076X   23296.51021269 -.00000042  00000-0  15434-4 0  9998,2 53007  53.2197  31.5318 0001627  92.7255 267.3923 15.08840602 72253,6917.879,95.438,540.869,538.618,0.0
53007.0,STARLINK-4215,PAYLOAD,2023-10-24 12:05:28,15.08853143,0.0001873,53.2198,27.071,106.5243,253.5955,7.9831e-05,9.83e-06,0.0,0 STARLINK-4215,1 53007U 22076X   23297.50380405  .00000983  00000-0  79831-4 0  9992,2 53007  53.2198  27.0710 0001873 106.5243 253.5955 15.08853143 72407,6917.84,95.437,541.001,538.41,0.0
53007.0,STARLINK-4215,PAYLOAD,2023-10-24 15:16:14,15.08862211,0.000187,53.2197,26.4752,97.8486,262.2719,-0.00021839,-3.764e-05,0.0,0 STARLINK-4215,1 53007U 22076X   23297.63628353 -.00003764  00000-0 -21839-3 0  9999,2 53007  53.2197  26.4752 0001870  97.8486 262.2719 15.08862211 71953,6917.812,95.436,540.971,538.384,0.0
53007.0,STARLINK-4215,PAYLOAD,2023-10-25 13:31:39,15.088511,0.0001584,53.2184,22.3149,107.8582,252.2583,7.1167e-05,8.45e-06,0.0,0 STARLINK-4215,1 53007U 22076X   23298.56364683  .00000845  00000-0  71167-4 0  9990,2 53007  53.2184  22.3149 0001584 107.8582 252.2583 15.08851100 72566,6917.846,95.437,540.807,538.616,0.0
53007.0,STARLINK-4215,PAYLOAD,2023-10-25 23:03:58,15.08843852,0.000147,53.2199,20.5307,86.2456,273.8704,9.6432e-05,1.247e-05,0.0,0 STARLINK-4215,1 53007U 22076X   23298.96109068  .00001247  00000-0  96432-4 0  9997,2 53007  53.2199  20.5307 0001470  86.2456 273.8704 15.08843852 72628,6917.869,95.437,540.751,538.717,0.0
53007.0,STARLINK-4215,PAYLOAD,2023-10-26 11:47:03,15.08846913,0.0001529,53.2186,18.1532,85.3834,274.7333,1.5465e-05,-4.2e-07,0.0,0 STARLINK-4215,1 53007U 22076X   23299.49101045 -.00000042  00000-0  15465-4 0  9993,2 53007  53.2186  18.1532 0001529  85.3834 274.7333 15.08846913 72238,6917.859,95.437,540.782,538.667,0.0
53007.0,STARLINK-4215,PAYLOAD,2023-10-27 05:16:16,15.08852694,0.000139,53.219,14.8802,88.2098,271.9053,0.00018587,2.672e-05,0.0,0 STARLINK-4215,1 53007U 22076X   23300.21963887  .00002672  00000-0  18587-3 0  9993,2 53007  53.2190  14.8802 0001390  88.2098 271.9053 15.08852694 72811,6917.842,95.437,540.668,538.745,0.0
53007.0,STARLINK-4215,PAYLOAD,2023-10-27 11:37:48,15.0886738,0.0001522,53.2184,13.6913,88.5915,271.5252,0.00036365,5.509e-05,0.0,0 STARLINK-4215,1 53007U 22076X   23300.48459323  .00005509  00000-0  36365-3 0  9993,2 53007  53.2184  13.6913 0001522  88.5915 271.5252 15.08867380 72851,6917.797,95.436,540.715,538.609,0.0
53007.0,STARLINK-4215,PAYLOAD,2023-10-27 14:48:34,15.08871996,0.000155,53.2184,13.0941,90.9026,269.2144,0.00048461,7.44e-05,0.0,0 STARLINK-4215,1 53007U 22076X   23300.61707067  .00007440  00000-0  48461-3 0  9995,2 53007  53.2184  13.0941 0001550  90.9026 269.2144 15.08871996 72400,6917.783,95.436,540.72,538.575,0.0
53007.0,STARLINK-4215,PAYLOAD,2023-10-28 11:28:37,15.08831373,0.0001621,53.2182,9.2311,94.6331,265.4846,-0.00023305,-3.994e-05,0.0,0 STARLINK-4215,1 53007U 22076X   23301.47820745 -.00003994  00000-0 -23305-3 0  9991,2 53007  53.2182   9.2311 0001621  94.6331 265.4846 15.08831373 73004,6917.907,95.438,540.893,538.65,0.0
53007.0,STARLINK-4215,PAYLOAD,2023-10-28 14:39:23,15.0883154,0.0001593,53.2179,8.6355,95.9623,264.155,-9.7488e-05,-1.839e-05,0.0,0 STARLINK-4215,1 53007U 22076X   23301.61068745 -.00001839  00000-0 -97488-4 0  9991,2 53007  53.2179   8.6355 0001593  95.9623 264.1550 15.08831540 72550,6917.906,95.438,540.873,538.669,0.0
53007.0,STARLINK-4215,PAYLOAD,2023-10-29 11:19:24,15.08864015,0.0001603,53.218,4.7709,97.321,262.7965,0.0014818,0.00023389,0.0,0 STARLINK-4215,1 53007U 22076X   23302.47180769  .00023389  00000-0  14818-2 0  9993,2 53007  53.2180   4.7709 0001603  97.3210 262.7965 15.08864015 73156,6917.807,95.436,540.781,538.563,0.0
53007.0,STARLINK-4215,PAYLOAD,2023-10-29 20:51:42,15.08859365,0.0001607,53.2182,2.9855,89.6521,270.4655,0.0008406,0.00013123,0.0,0 STARLINK-4215,1 53007U 22076X   23302.86924676  .00013123  00000-0  84060-3 0  9991,2 53007  53.2182   2.9855 0001607  89.6521 270.4655 15.08859365 73214,6917.821,95.436,540.798,538.575,0.0
53007.0,STARLINK-4215,PAYLOAD,2023-10-30 04:48:38,15.08834317,0.0001556,53.2177,1.5,86.5316,273.5854,-0.00010112,-1.897e-05,0.0,0 STARLINK-4215,1 53007U 22076X   23303.20045127 -.00001897  00000-0 -10112-3 0  9999,2 53007  53.2177   1.5000 0001556  86.5316 273.5854 15.08834317 73266,6917.898,95.438,540.839,538.686,0.0
53007.0,STARLINK-4215,PAYLOAD,2023-10-30 20:42:31,15.08829426,0.0001594,53.217,358.5277,82.4517,277.6656,0.00078317,0.00012195,0.0,0 STARLINK-4215,1 53007U 22076X   23303.86285980  .00012195  00000-0  78317-3 0  9996,2 53007  53.2170 358.5277 0001594  82.4517 277.6656 15.08829426 72898,6917.913,95.438,540.88,538.675,0.0
53007.0,STARLINK-4215,PAYLOAD,2023-10-31 09:25:36,15.08835957,0.0001648,53.2168,356.1485,83.7816,276.3364,0.00055747,8.594e-05,0.0,0 STARLINK-4215,1 53007U 22076X   23304.39278243  .00008594  00000-0  55747-3 0  9999,2 53007  53.2168 356.1485 0001648  83.7816 276.3364 15.08835957 73446,6917.893,95.438,540.898,538.618,0.0
53007.0,STARLINK-4215,PAYLOAD,2023-10-31 20:33:18,15.08843025,0.0001623,53.2165,354.0665,83.1251,276.9926,0.00055089,8.491e-05,0.0,0 STARLINK-4215,1 53007U 22076X   23304.85646224  .00008491  00000-0  55089-3 0  9993,2 53007  53.2165 354.0665 0001623  83.1251 276.9926 15.08843025 73041,6917.871,95.437,540.859,538.613,0.0
53007.0,STARLINK-4215,PAYLOAD,2023-11-01 12:27:09,15.08853146,0.0001868,53.2173,351.0927,84.7364,275.3842,0.00055287,8.525e-05,0.0,0 STARLINK-4215,1 53007U 22076X   23305.51885952  .00008525  00000-0  55287-3 0  9998,2 53007  53.2173 351.0927 0001868  84.7364 275.3842 15.08853146 73619,6917.84,95.437,540.997,538.413,0.0
53007.0,STARLINK-4215,PAYLOAD,2023-11-02 10:42:33,15.08854467,0.0001621,53.2161,346.9293,89.5026,270.6152,0.00037441,5.678e-05,0.0,0 STARLINK-4215,1 53007U 22076X   23306.44621572  .00005678  00000-0  37441-3 0  9995,2 53007  53.2161 346.9293 0001621  89.5026 270.6152 15.08854467 73754,6917.836,95.437,540.823,538.58,0.0
53007.0,STARLINK-4215,PAYLOAD,2023-11-02 20:14:52,15.08844009,0.000169,53.218,345.1428,87.8125,272.3061,0.00012672,1.729e-05,0.0,0 STARLINK-4215,1 53007U 22076X   23306.84365786  .00001729  00000-0  12672-3 0  9993,2 53007  53.2180 345.1428 0001690  87.8125 272.3061 15.08844009 73819,6917.868,95.437,540.902,538.564,0.0
53007.0,STARLINK-4215,PAYLOAD,2023-11-03 08:57:57,15.08842824,0.0001786,53.2181,342.765,92.9908,267.1289,0.00014696,2.052e-05,0.0,0 STARLINK-4215,1 53007U 22076X   23307.37357940  .00002052  00000-0  14696-3 0  9993,2 53007  53.2181 342.7650 0001786  92.9908 267.1289 15.08842824 73426,6917.872,95.437,540.972,538.501,0.0
53007.0,STARLINK-4215,PAYLOAD,2023-11-03 20:05:39,15.08840447,0.000194,53.2173,340.6842,81.8272,278.294,0.00015731,2.216e-05,0.0,0 STARLINK-4215,1 53007U 22076X   23307.83726184  .00002216  00000-0  15731-3 0  9997,2 53007  53.2173 340.6842 0001940  81.8272 278.2940 15.08840447 73965,6917.879,95.438,541.086,538.402,0.0
53007.0,STARLINK-4215,PAYLOAD,2023-11-04 08:48:44,15.08841597,0.0001675,53.2178,338.3047,92.2138,267.9045,0.00010327,1.356e-05,0.0,0 STARLINK-4215,1 53007U 22076X   23308.36718160  .00001356  00000-0  10327-3 0  9991,2 53007  53.2178 338.3047 0001675  92.2138 267.9045 15.08841597 73578,6917.876,95.437,540.899,538.582,0.0
53007.0,STARLINK-4215,PAYLOAD,2023-11-05 08:39:31,15.0885098,0.0001702,53.2173,333.8441,90.9179,269.2008,0.00033101,4.985e-05,0.0,0 STARLINK-4215,1 53007U 22076X   23309.36077767  .00004985  00000-0  33101-3 0  9999,2 53007  53.2173 333.8441 0001702  90.9179 269.2008 15.08850980 74191,6917.847,95.437,540.889,538.534,0.0
53007.0,STARLINK-4215,PAYLOAD,2023-11-05 18:11:49,15.08846293,0.0001706,53.2177,332.0598,91.3992,268.7196,0.00015535,2.186e-05,0.0,0 STARLINK-4215,1 53007U 22076X   23309.75821720  .00002186  00000-0  15535-3 0  9990,2 53007  53.2177 332.0598 0001706  91.3992 268.7196 15.08846293 73789,6917.861,95.437,540.906,538.546,0.0
53007.0,STARLINK-4215,PAYLOAD,2023-11-06 02:08:45,15.08844586,0.000183,53.2188,330.5771,89.3353,270.7849,0.00018709,2.691e-05,0.0,0 STARLINK-4215,1 53007U 22076X   23310.08941920  .00002691  00000-0  18709-3 0  9990,2 53007  53.2188 330.5771 0001830  89.3353 270.7849 15.08844586 74303,6917.866,95.437,540.997,538.465,0.0
53007.0,STARLINK-4215,PAYLOAD,2023-11-06 08:30:17,15.08860425,0.0001744,53.2173,329.3833,82.5938,277.5252,0.0003971,6.041e-05,0.0,0 STARLINK-4215,1 53007U 22076X   23310.35437117  .00006041  00000-0  39710-3 0  9996,2 53007  53.2173 329.3833 0001744  82.5938 277.5252 15.08860425 74347,6917.818,95.436,540.889,538.476,0.0
53007.0,STARLINK-4215,PAYLOAD,2023-11-06 18:02:37,15.08827948,0.0001966,53.2171,327.601,85.8623,274.2593,-0.00020632,-3.569e-05,0.0,0 STARLINK-4215,1 53007U 22076X   23310.75182577 -.00003569  00000-0 -20632-3 0  9994,2 53007  53.2171 327.6010 0001966  85.8623 274.2593 15.08827948 74408,6917.917,95.438,541.142,538.422,0.0
53007.0,STARLINK-4215,PAYLOAD,2023-11-07 08:21:07,15.08785569,0.0001324,53.217,324.9229,89.6589,270.4555,-0.00082882,-0.00013435,0.0,0 STARLINK-4215,1 53007U 22076X   23311.34800890 -.00013435  00000-0 -82882-3 0  9993,2 53007  53.2170 324.9229 0001324  89.6589 270.4555 15.08785569 74497,6918.047,95.441,540.828,538.996,0.0
